{"spkid": "50671142", "covariance": {"epoch": "2457928.5", "labels": ["e", "q", "tp", "node", "peri", "i"], "elements": [{"title": "eccentricity", "value": ".8925830488481435", "units": null, "sigma": 1.47130165399627e-06, "name": "e", "label": "e"}, {"label": "q", "sigma": 3.06126125236829e-06, "name": "q", "title": "perihelion distance", "value": ".2232363234000474", "units": "au"}, {"label": "tp", "value": "2457811.308696727586", "title": "time of perihelion passage", "units": "TDB", "name": "tp", "sigma": 0.000109326286212118}, {"label": "node", "title": "longitude of the ascending node", "value": "235.0594468182537", "units": "deg", "name": "om", "sigma": 0.000503854557526576}, {"label": "peri", "sigma": 0.000531124543843736, "name": "w", "value": "206.4862786804598", "title": "argument of perihelion", "units": "deg"}, {"units": "deg", "title": "inclination", "value": "3.355409354387161", "name": "i", "sigma": 0.000165915605619747, "label": "i"}], "data": [["2.164728557052164E-12", "-4.504037034770365E-12", "-5.522523487637201E-11", "-1.745835529710014E-10", "-3.156995456144167E-10", "7.759655083678463E-11"], ["-4.504037034770365E-12", "9.371320455251461E-12", "1.150486417663014E-10", "3.633281058085403E-10", "6.568214491118431E-10", "-1.614881016641559E-10"], ["-5.522523487637201E-11", "1.150486417663014E-10", "1.195223685693404E-8", "1.103526342550575E-8", "4.67744709079149E-9", "-4.860390210856089E-9"], ["-1.745835529710014E-10", "3.633281058085403E-10", "1.103526342550575E-8", "2.53869415140302E-7", "-2.119620857886024E-7", "-8.225082579220202E-8"], ["-3.156995456144167E-10", "6.568214491118431E-10", "4.67744709079149E-9", "-2.119620857886024E-7", "2.82093281073217E-7", "6.368650670983461E-8"], ["7.759655083678463E-11", "-1.614881016641559E-10", "-4.860390210856089E-9", "-8.225082579220202E-8", "6.368650670983461E-8", "2.752798818816739E-8"]]}, "elements": [{"label": "e", "name": "e", "sigma": "1.4823E-6", "title": "eccentricity", "value": ".8940871653087561", "units": null}, {"value": "2.074101772045227", "title": "semi-major axis", "units": "au", "sigma": "9.6454E-8", "name": "a", "label": "a"}, {"title": "perihelion distance", "value": ".2196739981154422", "units": "au", "sigma": "3.0843E-6", "name": "q", "label": "q"}, {"label": "i", "units": "deg", "title": "inclination; angle with respect to x-y ecliptic plane", "value": "3.360756891595058", "name": "i", "sigma": ".00016499"}, {"units": "deg", "title": "longitude of the ascending node", "value": "235.0229011785898", "name": "om", "sigma": ".00051401", "label": "node"}, {"title": "argument of perihelion", "value": "206.5685569758116", "units": "deg", "name": "w", "sigma": ".00053887", "label": "peri"}, {"label": "M", "name": "ma", "sigma": "7.7532E-5", "title": "mean anomaly", "value": "37.11524396150358", "units": "deg"}, {"title": "time of perihelion passage", "value": "2461088.015329763414", "units": "TDB", "sigma": ".00022806", "name": "tp", "label": "tp"}, {"label": "period", "name": "per", "sigma": "7.6107E-5", "units": "d", "title": "sidereal orbital period", "value": "1091.047153756348"}, {"units": "deg/d", "value": ".3299582412735894", "title": "mean motion", "sigma": "2.3016E-8", "name": "n", "label": "n"}, {"value": "3.928529545975013", "title": "aphelion distance", "units": "au", "sigma": "1.8269E-7", "name": "ad", "label": "Q"}], "epoch": "2461200.5"}